[{"OBJECT_NAME":"OBJECT J","OBJECT_ID":"2025-274J","EPOCH":"2026-03-09T17:32:53.019744","MEAN_MOTION":14.93551146,"ECCENTRICITY":0.00127149,"INCLINATION":97.743,"RA_OF_ASC_NODE":359.5505,"ARG_OF_PERICENTER":354.9543,"MEAN_ANOMALY":5.1546,"EPHEMERIS_TYPE":0,"CLASSIFICATION_TYPE":"U","NORAD_CAT_ID":66658,"ELEMENT_SET_NO":999,"REV_AT_EPOCH":1538,"BSTAR":0.00052680347,"MEAN_MOTION_DOT":5.506e-5,"MEAN_MOTION_DDOT":0},{"OBJECT_NAME":"ELECTRON KICK STAGE R\/B","OBJECT_ID":"2024-172G","EPOCH":"2026-03-09T20:17:57.250464","MEAN_MOTION":14.97730495,"ECCENTRICITY":0.00502098,"INCLINATION":98.0041,"RA_OF_ASC_NODE":176.7734,"ARG_OF_PERICENTER":80.5411,"MEAN_ANOMALY":280.148,"EPHEMERIS_TYPE":0,"CLASSIFICATION_TYPE":"U","NORAD_CAT_ID":61226,"ELEMENT_SET_NO":999,"REV_AT_EPOCH":7982,"BSTAR":0.00056326684,"MEAN_MOTION_DOT":6.716e-5,"MEAN_MOTION_DDOT":0}]
